IRIDIUM 126             
1 42809U 17039G   25092.49068241 -.00000243  00000+0 -93967-4 0  9993
2 42809  86.4045 177.8212 0002043  87.9846 272.1584 14.34217529406783
IRIDIUM 124             
1 42810U 17039H   25092.59357306  .00000301  00000+0  83501-4 0  9995
2 42810  86.4447 114.5896 0002010  92.8963 267.2468 14.43278494411562
IRIDIUM 128             
1 42811U 17039J   25092.55118928  .00000716  00000+0  24869-3 0  9998
2 42811  86.4024 209.2526 0001766 103.2155 256.9238 14.34217456406827
IRIDIUM 121             
1 42812U 17039K   25092.50971270  .00000570  00000+0  19648-3 0  9998
2 42812  86.4043 177.8379 0002150 102.5947 257.5490 14.34219137406661
IRIDIUM 133             
1 42955U 17061A   25092.58290200  .00000089  00000+0  24681-4 0  9995
2 42955  86.4028 209.3460 0002044  96.3995 263.7434 14.34218753391628
IRIDIUM 100             
1 42956U 17061B   25092.57655932  .00000427  00000+0  14529-3 0  9997
2 42956  86.4024 209.2777 0001979  93.8188 266.3234 14.34218509391623
IRIDIUM 122             
1 42957U 17061C   25092.61461559 -.00000285  00000+0 -10874-3 0  9996
2 42957  86.4027 209.2610 0001728  89.5079 270.6315 14.34218130391635
IRIDIUM 129             
1 42958U 17061D   25092.57021702  .00000504  00000+0  17274-3 0  9997
2 42958  86.4025 209.3415 0002539  95.0188 265.1298 14.34219939391640
